[{"OBJECT_NAME":"DONGPO 10","OBJECT_ID":"2022-167H","EPOCH":"2026-03-09T22:44:56.137344","MEAN_MOTION":15.322785,"ECCENTRICITY":0.00061655,"INCLINATION":97.685,"RA_OF_ASC_NODE":235.0962,"ARG_OF_PERICENTER":106.9526,"MEAN_ANOMALY":253.2392,"EPHEMERIS_TYPE":0,"CLASSIFICATION_TYPE":"U","NORAD_CAT_ID":54689,"ELEMENT_SET_NO":999,"REV_AT_EPOCH":18015,"BSTAR":0.00049390523,"MEAN_MOTION_DOT":0.00015333,"MEAN_MOTION_DDOT":0},{"OBJECT_NAME":"STARLINK-35104","OBJECT_ID":"2025-210K","EPOCH":"2026-03-09T21:13:10.559136","MEAN_MOTION":15.30210038,"ECCENTRICITY":0.00012873,"INCLINATION":53.1572,"RA_OF_ASC_NODE":305.9794,"ARG_OF_PERICENTER":127.6005,"MEAN_ANOMALY":232.5113,"EPHEMERIS_TYPE":0,"CLASSIFICATION_TYPE":"U","NORAD_CAT_ID":65631,"ELEMENT_SET_NO":999,"REV_AT_EPOCH":2775,"BSTAR":0.00091469647,"MEAN_MOTION_DOT":0.00026838,"MEAN_MOTION_DDOT":0}]
